[{"OBJECT_NAME":"BEIDOU-3 M26 (C48)","OBJECT_ID":"2023-207B","EPOCH":"2026-04-05T01:41:22.576416","MEAN_MOTION":1.86229806,"ECCENTRICITY":0.0005481,"INCLINATION":55.6923,"RA_OF_ASC_NODE":64.7546,"ARG_OF_PERICENTER":298.2156,"MEAN_ANOMALY":61.7019,"EPHEMERIS_TYPE":0,"CLASSIFICATION_TYPE":"U","NORAD_CAT_ID":58655,"ELEMENT_SET_NO":999,"REV_AT_EPOCH":1546,"BSTAR":0,"MEAN_MOTION_DOT":-4.1e-7,"MEAN_MOTION_DDOT":0},{"OBJECT_NAME":"BEIDOU-3 M25 (C47)","OBJECT_ID":"2024-168B","EPOCH":"2026-04-05T21:46:28.649856","MEAN_MOTION":1.8623039,"ECCENTRICITY":0.0003707,"INCLINATION":54.5381,"RA_OF_ASC_NODE":304.7539,"ARG_OF_PERICENTER":321.3705,"MEAN_ANOMALY":356.7357,"EPHEMERIS_TYPE":0,"CLASSIFICATION_TYPE":"U","NORAD_CAT_ID":61186,"ELEMENT_SET_NO":999,"REV_AT_EPOCH":1043,"BSTAR":0,"MEAN_MOTION_DOT":-5.5e-7,"MEAN_MOTION_DDOT":0},{"OBJECT_NAME":"BEIDOU-3 M27 (C49)","OBJECT_ID":"2024-168C","EPOCH":"2026-04-03T21:16:28.636320","MEAN_MOTION":1.86230456,"ECCENTRICITY":0.00028765,"INCLINATION":54.5346,"RA_OF_ASC_NODE":304.8072,"ARG_OF_PERICENTER":31.7599,"MEAN_ANOMALY":146.4859,"EPHEMERIS_TYPE":0,"CLASSIFICATION_TYPE":"U","NORAD_CAT_ID":61187,"ELEMENT_SET_NO":999,"REV_AT_EPOCH":787,"BSTAR":0,"MEAN_MOTION_DOT":-6.4e-7,"MEAN_MOTION_DDOT":0}]
