BEIDOU-3 M26            
1 58655U 23207B   26095.07040019 -.00000041  00000+0  00000+0 0  9990
2 58655  55.6923  64.7546 0005481 298.2156  61.7019  1.86229806 15466
BEIDOU-3 M25            
1 61186U 24168B   26095.90727604 -.00000055  00000+0  00000+0 0  9999
2 61186  54.5381 304.7539 0003707 321.3705 356.7357  1.86230390 10435
BEIDOU-3 M27            
1 61187U 24168C   26093.88644255 -.00000064  00000+0  00000+0 0  9995
2 61187  54.5346 304.8072 0002876  31.7599 146.4859  1.86230456  7877
